[{"OBJECT_NAME":"STARLINK-35182","OBJECT_ID":"2025-198N","EPOCH":"2026-03-09T22:21:27.627264","MEAN_MOTION":15.3020278,"ECCENTRICITY":9.134e-5,"INCLINATION":53.1574,"RA_OF_ASC_NODE":270.1181,"ARG_OF_PERICENTER":124.5822,"MEAN_ANOMALY":235.5265,"EPHEMERIS_TYPE":0,"CLASSIFICATION_TYPE":"U","NORAD_CAT_ID":65504,"ELEMENT_SET_NO":999,"REV_AT_EPOCH":2865,"BSTAR":0.0010695464,"MEAN_MOTION_DOT":0.00031455,"MEAN_MOTION_DDOT":0},{"OBJECT_NAME":"TRANSPORTER-1 OBJECT M","OBJECT_ID":"2021-006M","EPOCH":"2026-03-09T22:05:37.843296","MEAN_MOTION":15.3227845,"ECCENTRICITY":0.00102759,"INCLINATION":97.2377,"RA_OF_ASC_NODE":116.7915,"ARG_OF_PERICENTER":187.5492,"MEAN_ANOMALY":172.5597,"EPHEMERIS_TYPE":0,"CLASSIFICATION_TYPE":"U","NORAD_CAT_ID":47424,"ELEMENT_SET_NO":999,"REV_AT_EPOCH":28439,"BSTAR":0.00023985652,"MEAN_MOTION_DOT":7.411e-5,"MEAN_MOTION_DDOT":0}]
